STARLINK-35706          
1 67051U 25294X   25353.25002315 -.01673795  78093-3 -47364-2 0  9993
2 67051  43.0002 142.3936 0001937 255.4607  39.4430 15.92602981  1352
STARLINK-35720          
1 67052U 25294Y   25353.25002315 -.01687730  79343-3 -47617-2 0  9998
2 67052  43.0003 142.3895 0001715 260.1803  36.3918 15.92662273  1305
STARLINK-35739          
1 67053U 25294Z   25353.25002315 -.01696324  80137-3 -47715-2 0  9990
2 67053  43.0004 142.3843 0001677 257.4069  41.1411 15.92721387  1304
STARLINK-35754          
1 67054U 25294AA  25353.25002315 -.01702869  80757-3 -47745-2 0  9994
2 67054  43.0003 142.3788 0001977 257.5295  43.2507 15.92782693  1303
STARLINK-35790          
1 67055U 25294AB  25353.25002315 -.01711919  81601-3 -47848-2 0  9994
2 67055  43.0001 142.3730 0001981 257.9943  44.9092 15.92843817  1301
STARLINK-36143          
1 67056U 25294AC  25353.25002315 -.01726863  83059-3 -47848-2 0  9998
2 67056  43.0000 142.3593 0001922 257.2556  50.9123 15.93011475  1306
STARLINK-36141          
1 67057U 25294AD  25353.25002315 -.01726763  83007-3 -47979-2 0  9996
2 67057  43.0000 142.3646 0001671 259.3670  46.9449 15.92959006  1303
STARLINK-35767          
1 67058U 25294AE  25353.25002315 -.01722595  82591-3 -48004-2 0  9993
2 67058  43.0004 142.3684 0001698 258.3883  46.2779 15.92902391  1308
HULIANWANG DIGUI-119    
1 67059U 25295A   25351.46978994 -.00000182  00000+0 -90034-5 0  9995
2 67059  50.0070 352.2731 0013896 264.5159  95.4170 14.25569756   795
HULIANWANG DIGUI-120    
1 67060U 25295B   25349.71694909  .00000000  00000+0  66896-4 0  9998
2 67060  50.0050 359.6709 0013223 257.2650 102.6786 14.25706335   543
HULIANWANG DIGUI-121    
1 67061U 25295C   25349.71692468 -.00000001  00000+0  66638-4 0  9993
2 67061  50.0012 359.6606 0013268 256.3366 103.6071 14.25729079   549
HULIANWANG DIGUI-122    
1 67062U 25295D   25353.29144022  .00000142  00000+0  12635-3 0  9992
2 67062  50.0054 344.5736 0013163 276.2751  83.6663 14.25755091  1050
