CCSDS_OMM_VERS = 2.0
CREATION_DATE  = 
ORIGINATOR     = 

OBJECT_NAME    = STARLINK-35706
OBJECT_ID      = 2025-294X
CENTER_NAME    = EARTH
REF_FRAME      = TEME
TIME_SYSTEM    = UTC
MEAN_ELEMENT_THEORY = SGP/SGP4

EPOCH          = 2025-12-19T06:00:02.000160
MEAN_MOTION    = 15.92602981
ECCENTRICITY   = .00019374
INCLINATION    = 43.0002
RA_OF_ASC_NODE = 142.3936
ARG_OF_PERICENTER = 255.4607
MEAN_ANOMALY   = 39.4430

EPHEMERIS_TYPE = 0
CLASSIFICATION_TYPE = U
NORAD_CAT_ID   = 67051
ELEMENT_SET_NO = 999
REV_AT_EPOCH   = 135
BSTAR          = -.47363721E-2
MEAN_MOTION_DOT = -.1673795E-1
MEAN_MOTION_DDOT = .78092904E-3

CCSDS_OMM_VERS = 2.0
CREATION_DATE  = 
ORIGINATOR     = 

OBJECT_NAME    = STARLINK-35720
OBJECT_ID      = 2025-294Y
CENTER_NAME    = EARTH
REF_FRAME      = TEME
TIME_SYSTEM    = UTC
MEAN_ELEMENT_THEORY = SGP/SGP4

EPOCH          = 2025-12-19T06:00:02.000160
MEAN_MOTION    = 15.92662273
ECCENTRICITY   = .0001715
INCLINATION    = 43.0003
RA_OF_ASC_NODE = 142.3895
ARG_OF_PERICENTER = 260.1803
MEAN_ANOMALY   = 36.3918

EPHEMERIS_TYPE = 0
CLASSIFICATION_TYPE = U
NORAD_CAT_ID   = 67052
ELEMENT_SET_NO = 999
REV_AT_EPOCH   = 130
BSTAR          = -.47616852E-2
MEAN_MOTION_DOT = -.168773E-1
MEAN_MOTION_DDOT = .79342766E-3

CCSDS_OMM_VERS = 2.0
CREATION_DATE  = 
ORIGINATOR     = 

OBJECT_NAME    = STARLINK-35739
OBJECT_ID      = 2025-294Z
CENTER_NAME    = EARTH
REF_FRAME      = TEME
TIME_SYSTEM    = UTC
MEAN_ELEMENT_THEORY = SGP/SGP4

EPOCH          = 2025-12-19T06:00:02.000160
MEAN_MOTION    = 15.92721387
ECCENTRICITY   = .00016772
INCLINATION    = 43.0004
RA_OF_ASC_NODE = 142.3843
ARG_OF_PERICENTER = 257.4069
MEAN_ANOMALY   = 41.1411

EPHEMERIS_TYPE = 0
CLASSIFICATION_TYPE = U
NORAD_CAT_ID   = 67053
ELEMENT_SET_NO = 999
REV_AT_EPOCH   = 130
BSTAR          = -.47714561E-2
MEAN_MOTION_DOT = -.1696324E-1
MEAN_MOTION_DDOT = .8013662E-3

CCSDS_OMM_VERS = 2.0
CREATION_DATE  = 
ORIGINATOR     = 

OBJECT_NAME    = STARLINK-35754
OBJECT_ID      = 2025-294AA
CENTER_NAME    = EARTH
REF_FRAME      = TEME
TIME_SYSTEM    = UTC
MEAN_ELEMENT_THEORY = SGP/SGP4

EPOCH          = 2025-12-19T06:00:02.000160
MEAN_MOTION    = 15.92782693
ECCENTRICITY   = .00019771
INCLINATION    = 43.0003
RA_OF_ASC_NODE = 142.3788
ARG_OF_PERICENTER = 257.5295
MEAN_ANOMALY   = 43.2507

EPHEMERIS_TYPE = 0
CLASSIFICATION_TYPE = U
NORAD_CAT_ID   = 67054
ELEMENT_SET_NO = 999
REV_AT_EPOCH   = 130
BSTAR          = -.47744581E-2
MEAN_MOTION_DOT = -.1702869E-1
MEAN_MOTION_DDOT = .80757053E-3

CCSDS_OMM_VERS = 2.0
CREATION_DATE  = 
ORIGINATOR     = 

OBJECT_NAME    = STARLINK-35790
OBJECT_ID      = 2025-294AB
CENTER_NAME    = EARTH
REF_FRAME      = TEME
TIME_SYSTEM    = UTC
MEAN_ELEMENT_THEORY = SGP/SGP4

EPOCH          = 2025-12-19T06:00:02.000160
MEAN_MOTION    = 15.92843817
ECCENTRICITY   = .00019815
INCLINATION    = 43.0001
RA_OF_ASC_NODE = 142.3730
ARG_OF_PERICENTER = 257.9943
MEAN_ANOMALY   = 44.9092

EPHEMERIS_TYPE = 0
CLASSIFICATION_TYPE = U
NORAD_CAT_ID   = 67055
ELEMENT_SET_NO = 999
REV_AT_EPOCH   = 130
BSTAR          = -.47847692E-2
MEAN_MOTION_DOT = -.1711919E-1
MEAN_MOTION_DDOT = .81600552E-3

CCSDS_OMM_VERS = 2.0
CREATION_DATE  = 
ORIGINATOR     = 

OBJECT_NAME    = STARLINK-36143
OBJECT_ID      = 2025-294AC
CENTER_NAME    = EARTH
REF_FRAME      = TEME
TIME_SYSTEM    = UTC
MEAN_ELEMENT_THEORY = SGP/SGP4

EPOCH          = 2025-12-19T06:00:02.000160
MEAN_MOTION    = 15.93011475
ECCENTRICITY   = .00019222
INCLINATION    = 43.0000
RA_OF_ASC_NODE = 142.3593
ARG_OF_PERICENTER = 257.2556
MEAN_ANOMALY   = 50.9123

EPHEMERIS_TYPE = 0
CLASSIFICATION_TYPE = U
NORAD_CAT_ID   = 67056
ELEMENT_SET_NO = 999
REV_AT_EPOCH   = 130
BSTAR          = -.47847573E-2
MEAN_MOTION_DOT = -.1726863E-1
MEAN_MOTION_DDOT = .83059086E-3

CCSDS_OMM_VERS = 2.0
CREATION_DATE  = 
ORIGINATOR     = 

OBJECT_NAME    = STARLINK-36141
OBJECT_ID      = 2025-294AD
CENTER_NAME    = EARTH
REF_FRAME      = TEME
TIME_SYSTEM    = UTC
MEAN_ELEMENT_THEORY = SGP/SGP4

EPOCH          = 2025-12-19T06:00:02.000160
MEAN_MOTION    = 15.92959006
ECCENTRICITY   = .00016717
INCLINATION    = 43.0000
RA_OF_ASC_NODE = 142.3646
ARG_OF_PERICENTER = 259.3670
MEAN_ANOMALY   = 46.9449

EPHEMERIS_TYPE = 0
CLASSIFICATION_TYPE = U
NORAD_CAT_ID   = 67057
ELEMENT_SET_NO = 999
REV_AT_EPOCH   = 130
BSTAR          = -.47979206E-2
MEAN_MOTION_DOT = -.1726763E-1
MEAN_MOTION_DDOT = .83007077E-3

CCSDS_OMM_VERS = 2.0
CREATION_DATE  = 
ORIGINATOR     = 

OBJECT_NAME    = STARLINK-35767
OBJECT_ID      = 2025-294AE
CENTER_NAME    = EARTH
REF_FRAME      = TEME
TIME_SYSTEM    = UTC
MEAN_ELEMENT_THEORY = SGP/SGP4

EPOCH          = 2025-12-19T06:00:02.000160
MEAN_MOTION    = 15.92902391
ECCENTRICITY   = .00016986
INCLINATION    = 43.0004
RA_OF_ASC_NODE = 142.3684
ARG_OF_PERICENTER = 258.3883
MEAN_ANOMALY   = 46.2779

EPHEMERIS_TYPE = 0
CLASSIFICATION_TYPE = U
NORAD_CAT_ID   = 67058
ELEMENT_SET_NO = 999
REV_AT_EPOCH   = 130
BSTAR          = -.48004414E-2
MEAN_MOTION_DOT = -.1722595E-1
MEAN_MOTION_DDOT = .82590946E-3

CCSDS_OMM_VERS = 2.0
CREATION_DATE  = 
ORIGINATOR     = 

OBJECT_NAME    = HULIANWANG DIGUI-119
OBJECT_ID      = 2025-295A
CENTER_NAME    = EARTH
REF_FRAME      = TEME
TIME_SYSTEM    = UTC
MEAN_ELEMENT_THEORY = SGP/SGP4

EPOCH          = 2025-12-17T11:16:29.850816
MEAN_MOTION    = 14.25569756
ECCENTRICITY   = .00138963
INCLINATION    = 50.0070
RA_OF_ASC_NODE = 352.2731
ARG_OF_PERICENTER = 264.5159
MEAN_ANOMALY   = 95.4170

EPHEMERIS_TYPE = 0
CLASSIFICATION_TYPE = U
NORAD_CAT_ID   = 67059
ELEMENT_SET_NO = 999
REV_AT_EPOCH   = 79
BSTAR          = -.9003402E-5
MEAN_MOTION_DOT = -.182E-5
MEAN_MOTION_DDOT = 0

CCSDS_OMM_VERS = 2.0
CREATION_DATE  = 
ORIGINATOR     = 

OBJECT_NAME    = HULIANWANG DIGUI-120
OBJECT_ID      = 2025-295B
CENTER_NAME    = EARTH
REF_FRAME      = TEME
TIME_SYSTEM    = UTC
MEAN_ELEMENT_THEORY = SGP/SGP4

EPOCH          = 2025-12-15T17:12:24.401376
MEAN_MOTION    = 14.25706335
ECCENTRICITY   = .00132237
INCLINATION    = 50.0050
RA_OF_ASC_NODE = 359.6709
ARG_OF_PERICENTER = 257.2650
MEAN_ANOMALY   = 102.6786

EPHEMERIS_TYPE = 0
CLASSIFICATION_TYPE = U
NORAD_CAT_ID   = 67060
ELEMENT_SET_NO = 999
REV_AT_EPOCH   = 54
BSTAR          = .66896441E-4
MEAN_MOTION_DOT = 0
MEAN_MOTION_DDOT = 0

CCSDS_OMM_VERS = 2.0
CREATION_DATE  = 
ORIGINATOR     = 

OBJECT_NAME    = HULIANWANG DIGUI-121
OBJECT_ID      = 2025-295C
CENTER_NAME    = EARTH
REF_FRAME      = TEME
TIME_SYSTEM    = UTC
MEAN_ELEMENT_THEORY = SGP/SGP4

EPOCH          = 2025-12-15T17:12:22.292352
MEAN_MOTION    = 14.25729079
ECCENTRICITY   = .00132682
INCLINATION    = 50.0012
RA_OF_ASC_NODE = 359.6606
ARG_OF_PERICENTER = 256.3366
MEAN_ANOMALY   = 103.6071

EPHEMERIS_TYPE = 0
CLASSIFICATION_TYPE = U
NORAD_CAT_ID   = 67061
ELEMENT_SET_NO = 999
REV_AT_EPOCH   = 54
BSTAR          = .66638352E-4
MEAN_MOTION_DOT = -.1E-7
MEAN_MOTION_DDOT = 0

CCSDS_OMM_VERS = 2.0
CREATION_DATE  = 
ORIGINATOR     = 

OBJECT_NAME    = HULIANWANG DIGUI-122
OBJECT_ID      = 2025-295D
CENTER_NAME    = EARTH
REF_FRAME      = TEME
TIME_SYSTEM    = UTC
MEAN_ELEMENT_THEORY = SGP/SGP4

EPOCH          = 2025-12-19T06:59:40.435008
MEAN_MOTION    = 14.25755091
ECCENTRICITY   = .00131639
INCLINATION    = 50.0054
RA_OF_ASC_NODE = 344.5736
ARG_OF_PERICENTER = 276.2751
MEAN_ANOMALY   = 83.6663

EPHEMERIS_TYPE = 0
CLASSIFICATION_TYPE = U
NORAD_CAT_ID   = 67062
ELEMENT_SET_NO = 999
REV_AT_EPOCH   = 105
BSTAR          = .12634679E-3
MEAN_MOTION_DOT = .142E-5
MEAN_MOTION_DDOT = 0

